[{"model":"mobilender.address","fields":{"street":"Northland","zipcode":"14215","city":"Buffalo","state":"New York","person_id":1},"pk":1},
{"model":"mobilender.address","fields":{"street":"Waxwing","zipcode":"98682","city":"Vancouver","state":"Washington","person_id":2},"pk":2},
{"model":"mobilender.address","fields":{"street":"Roxbury","zipcode":"96835","city":"Honolulu","state":"Hawaii","person_id":3},"pk":3},
{"model":"mobilender.address","fields":{"street":"Ronald Regan","zipcode":"75387","city":"Dallas","state":"Texas","person_id":4},"pk":4},
{"model":"mobilender.address","fields":{"street":"Weeping Birch","zipcode":"46239","city":"Indianapolis","state":"Indiana","person_id":5},"pk":5},
{"model":"mobilender.address","fields":{"street":"Boyd","zipcode":"87505","city":"Santa Fe","state":"New Mexico","person_id":6},"pk":6},
{"model":"mobilender.address","fields":{"street":"Northview","zipcode":"28410","city":"Wilmington","state":"North Carolina","person_id":7},"pk":7},
{"model":"mobilender.address","fields":{"street":"Browning","zipcode":"80638","city":"Greeley","state":"Colorado","person_id":8},"pk":8},
{"model":"mobilender.address","fields":{"street":"Packers","zipcode":"79171","city":"Amarillo","state":"Texas","person_id":9},"pk":9},
{"model":"mobilender.address","fields":{"street":"Lerdahl","zipcode":"33499","city":"Boca Raton","state":"Florida","person_id":10},"pk":10},
{"model":"mobilender.address","fields":{"street":"Basil","zipcode":"97405","city":"Eugene","state":"Oregon","person_id":11},"pk":11},
{"model":"mobilender.address","fields":{"street":"Bayside","zipcode":"53205","city":"Milwaukee","state":"Wisconsin","person_id":12},"pk":12},
{"model":"mobilender.address","fields":{"street":"La Follette","zipcode":"67215","city":"Wichita","state":"Kansas","person_id":13},"pk":13},
{"model":"mobilender.address","fields":{"street":"Eastlawn","zipcode":"27621","city":"Raleigh","state":"North Carolina","person_id":14},"pk":14},
{"model":"mobilender.address","fields":{"street":"Magdeline","zipcode":"44905","city":"Mansfield","state":"Ohio","person_id":15},"pk":15},
{"model":"mobilender.address","fields":{"street":"5th","zipcode":"19120","city":"Philadelphia","state":"Pennsylvania","person_id":16},"pk":16},
{"model":"mobilender.address","fields":{"street":"Dovetail","zipcode":"87180","city":"Albuquerque","state":"New Mexico","person_id":17},"pk":17},
{"model":"mobilender.address","fields":{"street":"South","zipcode":"47732","city":"Evansville","state":"Indiana","person_id":18},"pk":18},
{"model":"mobilender.address","fields":{"street":"Katie","zipcode":"33805","city":"Lakeland","state":"Florida","person_id":19},"pk":19},
{"model":"mobilender.address","fields":{"street":"Mesta","zipcode":"25716","city":"Huntington","state":"West Virginia","person_id":20},"pk":20},
{"model":"mobilender.address","fields":{"street":"Helena","zipcode":"92121","city":"San Diego","state":"California","person_id":21},"pk":21},
{"model":"mobilender.address","fields":{"street":"Fuller","zipcode":"90831","city":"Long Beach","state":"California","person_id":22},"pk":22},
{"model":"mobilender.address","fields":{"street":"Hoard","zipcode":"60652","city":"Chicago","state":"Illinois","person_id":23},"pk":23},
{"model":"mobilender.address","fields":{"street":"Mosinee","zipcode":"93399","city":"Bakersfield","state":"California","person_id":24},"pk":24},
{"model":"mobilender.address","fields":{"street":"Grasskamp","zipcode":"73109","city":"Oklahoma City","state":"Oklahoma","person_id":25},"pk":25},
{"model":"mobilender.address","fields":{"street":"Dexter","zipcode":"44555","city":"Youngstown","state":"Ohio","person_id":26},"pk":26},
{"model":"mobilender.address","fields":{"street":"Randy","zipcode":"27635","city":"Raleigh","state":"North Carolina","person_id":27},"pk":27},
{"model":"mobilender.address","fields":{"street":"Spenser","zipcode":"95813","city":"Sacramento","state":"California","person_id":28},"pk":28},
{"model":"mobilender.address","fields":{"street":"Kipling","zipcode":"93773","city":"Fresno","state":"California","person_id":29},"pk":29},
{"model":"mobilender.address","fields":{"street":"Melby","zipcode":"20540","city":"Washington","state":"District of Columbia","person_id":30},"pk":30},
{"model":"mobilender.address","fields":{"street":"Westport","zipcode":"85284","city":"Tempe","state":"Arizona","person_id":31},"pk":31},
{"model":"mobilender.address","fields":{"street":"Lawn","zipcode":"85720","city":"Tucson","state":"Arizona","person_id":32},"pk":32},
{"model":"mobilender.address","fields":{"street":"Calypso","zipcode":"23454","city":"Virginia Beach","state":"Virginia","person_id":33},"pk":33},
{"model":"mobilender.address","fields":{"street":"Thompson","zipcode":"43615","city":"Toledo","state":"Ohio","person_id":34},"pk":34},
{"model":"mobilender.address","fields":{"street":"Raven","zipcode":"78715","city":"Austin","state":"Texas","person_id":35},"pk":35},
{"model":"mobilender.address","fields":{"street":"Sheridan","zipcode":"20456","city":"Washington","state":"District of Columbia","person_id":36},"pk":36},
{"model":"mobilender.address","fields":{"street":"Cottonwood","zipcode":"44130","city":"Cleveland","state":"Ohio","person_id":37},"pk":37},
{"model":"mobilender.address","fields":{"street":"Dapin","zipcode":"60697","city":"Chicago","state":"Illinois","person_id":38},"pk":38},
{"model":"mobilender.address","fields":{"street":"Chive","zipcode":"89012","city":"Henderson","state":"Nevada","person_id":39},"pk":39},
{"model":"mobilender.address","fields":{"street":"Muir","zipcode":"46406","city":"Gary","state":"Indiana","person_id":40},"pk":40},
{"model":"mobilender.address","fields":{"street":"Dexter","zipcode":"71151","city":"Shreveport","state":"Louisiana","person_id":41},"pk":41},
{"model":"mobilender.address","fields":{"street":"Rieder","zipcode":"21265","city":"Baltimore","state":"Maryland","person_id":42},"pk":42},
{"model":"mobilender.address","fields":{"street":"Welch","zipcode":"89115","city":"Las Vegas","state":"Nevada","person_id":43},"pk":43},
{"model":"mobilender.address","fields":{"street":"New Castle","zipcode":"84409","city":"Ogden","state":"Utah","person_id":44},"pk":44},
{"model":"mobilender.address","fields":{"street":"Esch","zipcode":"55428","city":"Minneapolis","state":"Minnesota","person_id":45},"pk":45},
{"model":"mobilender.address","fields":{"street":"Blaine","zipcode":"14646","city":"Rochester","state":"New York","person_id":46},"pk":46},
{"model":"mobilender.address","fields":{"street":"Ramsey","zipcode":"62718","city":"Springfield","state":"Illinois","person_id":47},"pk":47},
{"model":"mobilender.address","fields":{"street":"Toban","zipcode":"80262","city":"Denver","state":"Colorado","person_id":48},"pk":48},
{"model":"mobilender.address","fields":{"street":"Gina","zipcode":"93773","city":"Fresno","state":"California","person_id":49},"pk":49},
{"model":"mobilender.address","fields":{"street":"Hintze","zipcode":"32969","city":"Vero Beach","state":"Florida","person_id":50},"pk":50}]